[
    {
        "Altitude(m)": 588429.5288844814,
        "Argument of Periapsis(deg)": -0.022603160782972403,
        "Eccentricity": 0.0,
        "Inclination(deg)": 97.0,
        "Latitude(deg)": -65.87416032596875,
        "Longitude(deg)": 151.83214697773226,
        "Mean Anomaly(deg)": 246.68664326918747,
        "RAAN(deg)": 90.0059470536185,
        "Satellite Name": "Starlink Shell 3 1792",
        "Satellite Number": 1792,
        "Semi-Major Axis(m)": 6938478.169268562,
        "Time(s)": 570
    },
    {
        "Altitude(m)": 588600.93729895,
        "Argument of Periapsis(deg)": -0.02299970746337543,
        "Eccentricity": 0.0,
        "Inclination(deg)": 97.0,
        "Latitude(deg)": -66.4666613841041,
        "Longitude(deg)": 151.32914490000442,
        "Mean Anomaly(deg)": 247.3121194668926,
        "RAAN(deg)": 90.00605138789253,
        "Satellite Name": "Starlink Shell 3 1792",
        "Satellite Number": 1792,
        "Semi-Major Axis(m)": 6938478.169268562,
        "Time(s)": 580
    },
    {
        "Altitude(m)": 588768.5391592109,
        "Argument of Periapsis(deg)": -0.023396254143778456,
        "Eccentricity": 0.0,
        "Inclination(deg)": 97.0,
        "Latitude(deg)": -67.05767428687284,
        "Longitude(deg)": 150.80378111090943,
        "Mean Anomaly(deg)": 247.93759566459755,
        "RAAN(deg)": 90.00615572216653,
        "Satellite Name": "Starlink Shell 3 1792",
        "Satellite Number": 1792,
        "Semi-Major Axis(m)": 6938478.169268562,
        "Time(s)": 590
    },
    {
        "Altitude(m)": 588932.2668324759,
        "Argument of Periapsis(deg)": -0.023792800824181483,
        "Eccentricity": 0.0,
        "Inclination(deg)": 97.0,
        "Latitude(deg)": -67.64708751531863,
        "Longitude(deg)": 150.2543398852038,
        "Mean Anomaly(deg)": 248.56307186230268,
        "RAAN(deg)": 90.00626005644054,
        "Satellite Name": "Starlink Shell 3 1792",
        "Satellite Number": 1792,
        "Semi-Major Axis(m)": 6938478.169268562,
        "Time(s)": 600
    },
    {
        "Altitude(m)": 589092.0542305906,
        "Argument of Periapsis(deg)": -0.024189347504584503,
        "Eccentricity": 0.0,
        "Inclination(deg)": 97.0,
        "Latitude(deg)": -68.23477767601423,
        "Longitude(deg)": 149.67893351887102,
        "Mean Anomaly(deg)": 249.18854806000772,
        "RAAN(deg)": 90.00636439071454,
        "Satellite Name": "Starlink Shell 3 1792",
        "Satellite Number": 1792,
        "Semi-Major Axis(m)": 6938478.169268562,
        "Time(s)": 610
    },
    {
        "Altitude(m)": 589247.8368383739,
        "Argument of Periapsis(deg)": -0.02458589418498753,
        "Eccentricity": 0.0,
        "Inclination(deg)": 97.0,
        "Latitude(deg)": -68.82060794121912,
        "Longitude(deg)": 149.07548183938016,
        "Mean Anomaly(deg)": 249.81402425771273,
        "RAAN(deg)": 90.00646872498854,
        "Satellite Name": "Starlink Shell 3 1792",
        "Satellite Number": 1792,
        "Semi-Major Axis(m)": 6938478.169268562,
        "Time(s)": 620
    },
    {
        "Altitude(m)": 589399.5517412726,
        "Argument of Periapsis(deg)": -0.024982440865390556,
        "Eccentricity": 0.0,
        "Inclination(deg)": 97.0,
        "Latitude(deg)": -69.40442624692263,
        "Longitude(deg)": 148.44168709874856,
        "Mean Anomaly(deg)": 250.43950045541777,
        "RAAN(deg)": 90.00657305926256,
        "Satellite Name": "Starlink Shell 3 1792",
        "Satellite Number": 1792,
        "Semi-Major Axis(m)": 6938478.169268562,
        "Time(s)": 630
    },
    {
        "Altitude(m)": 589547.1376522993,
        "Argument of Periapsis(deg)": -0.025378987545793576,
        "Eccentricity": 0.0,
        "Inclination(deg)": 97.0,
        "Latitude(deg)": -69.98606320588726,
        "Longitude(deg)": 147.77500801185627,
        "Mean Anomaly(deg)": 251.0649766531228,
        "RAAN(deg)": 90.00667739353656,
        "Satellite Name": "Starlink Shell 3 1792",
        "Satellite Number": 1792,
        "Semi-Major Axis(m)": 6938478.169268562,
        "Time(s)": 640
    },
    {
        "Altitude(m)": 589690.5349382522,
        "Argument of Periapsis(deg)": -0.025775534226196602,
        "Eccentricity": 0.0,
        "Inclination(deg)": 97.0,
        "Latitude(deg)": -70.56532968445852,
        "Longitude(deg)": 147.07262739472225,
        "Mean Anomaly(deg)": 251.69045285082788,
        "RAAN(deg)": 90.00678172781058,
        "Satellite Name": "Starlink Shell 3 1792",
        "Satellite Number": 1792,
        "Semi-Major Axis(m)": 6938478.169268562,
        "Time(s)": 650
    },
    {
        "Altitude(m)": 589829.6856451916,
        "Argument of Periapsis(deg)": -0.026172080906599626,
        "Eccentricity": 0.0,
        "Inclination(deg)": 97.0,
        "Latitude(deg)": -71.14201398187664,
        "Longitude(deg)": 146.33141703550356,
        "Mean Anomaly(deg)": 252.31592904853292,
        "RAAN(deg)": 90.0068860620846,
        "Satellite Name": "Starlink Shell 3 1792",
        "Satellite Number": 1792,
        "Semi-Major Axis(m)": 6938478.169268562,
        "Time(s)": 660
    },
    {
        "Altitude(m)": 589964.5335232009,
        "Argument of Periapsis(deg)": -0.026568627587002652,
        "Eccentricity": 0.0,
        "Inclination(deg)": 97.0,
        "Latitude(deg)": -71.71587853875829,
        "Longitude(deg)": 145.54789747773668,
        "Mean Anomaly(deg)": 252.94140524623793,
        "RAAN(deg)": 90.0069903963586,
        "Satellite Name": "Starlink Shell 3 1792",
        "Satellite Number": 1792,
        "Semi-Major Axis(m)": 6938478.169268562,
        "Time(s)": 670
    },
    {
        "Altitude(m)": 590095.0240503689,
        "Argument of Periapsis(deg)": -0.02696517426740568,
        "Eccentricity": 0.0,
        "Inclination(deg)": 97.0,
        "Latitude(deg)": -72.2866560869656,
        "Longitude(deg)": 144.7181904952043,
        "Mean Anomaly(deg)": 253.56688144394298,
        "RAAN(deg)": 90.0070947306326,
        "Satellite Name": "Starlink Shell 3 1792",
        "Satellite Number": 1792,
        "Semi-Major Axis(m)": 6938478.169268562,
        "Time(s)": 680
    },
    {
        "Altitude(m)": 590221.1044560389,
        "Argument of Periapsis(deg)": -0.0273617209478087,
        "Eccentricity": 0.0,
        "Inclination(deg)": 97.0,
        "Latitude(deg)": -72.85404513584423,
        "Longitude(deg)": 143.8379665171155,
        "Mean Anomaly(deg)": 254.19235764164802,
        "RAAN(deg)": 90.00719906490663,
        "Satellite Name": "Starlink Shell 3 1792",
        "Satellite Number": 1792,
        "Semi-Major Axis(m)": 6938478.169268562,
        "Time(s)": 690
    },
    {
        "Altitude(m)": 590342.7237432873,
        "Argument of Periapsis(deg)": -0.027758267628211725,
        "Eccentricity": 0.0,
        "Inclination(deg)": 97.0,
        "Latitude(deg)": -73.41770466937612,
        "Longitude(deg)": 142.90238468541614,
        "Mean Anomaly(deg)": 254.81783383935306,
        "RAAN(deg)": 90.00730339918063,
        "Satellite Name": "Starlink Shell 3 1792",
        "Satellite Number": 1792,
        "Semi-Major Axis(m)": 6938478.169268562,
        "Time(s)": 700
    },
    {
        "Altitude(m)": 590459.8327106298,
        "Argument of Periapsis(deg)": -0.028154814308614752,
        "Eccentricity": 0.0,
        "Inclination(deg)": 97.0,
        "Latitude(deg)": -73.97724790481804,
        "Longitude(deg)": 141.906023228248,
        "Mean Anomaly(deg)": 255.4433100370581,
        "RAAN(deg)": 90.00740773345464,
        "Satellite Name": "Starlink Shell 3 1792",
        "Satellite Number": 1792,
        "Semi-Major Axis(m)": 6938478.169268562,
        "Time(s)": 710
    },
    {
        "Altitude(m)": 590572.3839729336,
        "Argument of Periapsis(deg)": -0.02855136098901778,
        "Eccentricity": 0.0,
        "Inclination(deg)": 97.0,
        "Latitude(deg)": -74.5322349356869,
        "Longitude(deg)": 140.84280244531345,
        "Mean Anomaly(deg)": 256.06878623476314,
        "RAAN(deg)": 90.00751206772864,
        "Satellite Name": "Starlink Shell 3 1792",
        "Satellite Number": 1792,
        "Semi-Major Axis(m)": 6938478.169268562,
        "Time(s)": 720
    },
    {
        "Altitude(m)": 590680.3319815636,
        "Argument of Periapsis(deg)": -0.028947907669420805,
        "Eccentricity": 0.0,
        "Inclination(deg)": 97.0,
        "Latitude(deg)": -75.08216405059993,
        "Longitude(deg)": 139.70589825340008,
        "Mean Anomaly(deg)": 256.6942624324682,
        "RAAN(deg)": 90.00761640200267,
        "Satellite Name": "Starlink Shell 3 1792",
        "Satellite Number": 1792,
        "Semi-Major Axis(m)": 6938478.169268562,
        "Time(s)": 730
    },
    {
        "Altitude(m)": 590783.633043722,
        "Argument of Periapsis(deg)": -0.029344454349823825,
        "Eccentricity": 0.0,
        "Inclination(deg)": 97.0,
        "Latitude(deg)": -75.62646148523903,
        "Longitude(deg)": 138.48764462077466,
        "Mean Anomaly(deg)": 257.3197386301732,
        "RAAN(deg)": 90.00772073627667,
        "Satellite Name": "Starlink Shell 3 1792",
        "Satellite Number": 1792,
        "Semi-Major Axis(m)": 6938478.169268562,
        "Time(s)": 740
    },
    {
        "Altitude(m)": 590882.2453409904,
        "Argument of Periapsis(deg)": -0.029741001030226845,
        "Eccentricity": 0.0,
        "Inclination(deg)": 97.0,
        "Latitude(deg)": -76.16446932938857,
        "Longitude(deg)": 137.17942843433744,
        "Mean Anomaly(deg)": 257.9452148278783,
        "RAAN(deg)": 90.00782507055067,
        "Satellite Name": "Starlink Shell 3 1792",
        "Satellite Number": 1792,
        "Semi-Major Axis(m)": 6938478.169268562,
        "Time(s)": 750
    }
]